[{"OBJECT_NAME":"STARLINK-31630","OBJECT_ID":"2024-050T","EPOCH":"2026-03-09T13:39:04.940352","MEAN_MOTION":15.30200807,"ECCENTRICITY":0.0001409,"INCLINATION":53.16,"RA_OF_ASC_NODE":168.5079,"ARG_OF_PERICENTER":92.3163,"MEAN_ANOMALY":267.7999,"EPHEMERIS_TYPE":0,"CLASSIFICATION_TYPE":"U","NORAD_CAT_ID":59271,"ELEMENT_SET_NO":999,"REV_AT_EPOCH":11071,"BSTAR":-5.7526e-5,"MEAN_MOTION_DOT":-2.063e-5,"MEAN_MOTION_DDOT":0},{"OBJECT_NAME":"STARLINK-35936","OBJECT_ID":"2025-271D","EPOCH":"2026-03-09T13:35:12.851808","MEAN_MOTION":15.30187874,"ECCENTRICITY":0.0001189,"INCLINATION":53.1578,"RA_OF_ASC_NODE":140.8022,"ARG_OF_PERICENTER":86.599,"MEAN_ANOMALY":273.5147,"EPHEMERIS_TYPE":0,"CLASSIFICATION_TYPE":"U","NORAD_CAT_ID":66620,"ELEMENT_SET_NO":999,"REV_AT_EPOCH":1754,"BSTAR":0.00086062,"MEAN_MOTION_DOT":0.00025207,"MEAN_MOTION_DDOT":0}]
