STARLINK-31630          
1 59271U 24050T   26068.56880718 -.00002063  00000+0 -57526-4 0  9991
2 59271  53.1600 168.5079 0001409  92.3163 267.7999 15.30200807110710
STARLINK-35936          
1 66620U 25271D   26068.56612097  .00025207  00000+0  86062-3 0  9995
2 66620  53.1578 140.8022 0001189  86.5990 273.5147 15.30187874 17544
